STARLINK-31846          
1 60126U 24118P   26068.21182631 -.00000122  00000+0  80007-5 0  9992
2 60126  53.1611  28.9083 0001213  77.6146 282.4991 15.30190165 95620
TRANSPORTER-11 OBJECT A 
1 60468U 24149A   26068.74646182  .00010774  00000+0  36054-3 0  9993
2 60468  97.3780 149.0949 0003110 191.0010 169.1164 15.31141332 86830
